[
  {
    "OBJECT_NAME": "STARLINK-6179",
    "OBJECT_ID": "23083AL",
    "EPOCH": "2025-11-11T03:05:31.995456",
    "MEAN_MOTION": 15.02542941,
    "ECCENTRICITY": 0.0001231,
    "INCLINATION": 43.0045,
    "RA_OF_ASC_NODE": 353.1844,
    "ARG_OF_PERICENTER": 268.122,
    "MEAN_ANOMALY": 91.9481,
    "EPHEMERIS_TYPE": 0,
    "CLASSIFICATION_TYPE": "U",
    "NORAD_CAT_ID": 56910,
    "ELEMENT_SET_NO": 999,
    "REV_AT_EPOCH": 13398,
    "BSTAR": 5.019700000000001e-05,
    "MEAN_MOTION_DOT": 4.75e-06,
    "MEAN_MOTION_DDOT": 0.0,
    "TLE_LINE1": "1 56910U 23083AL  25315.12884254  .00000475  00000+0  50197-4 0  9998",
    "TLE_LINE2": "2 56910  43.0045 353.1844 0001231 268.1220  91.9481 15.02542941133984",
    "COMMENT": "Grouped by shell and plane from TLE"
  },
  {
    "OBJECT_NAME": "STARLINK-6116",
    "OBJECT_ID": "23083AM",
    "EPOCH": "2025-11-11T03:23:06.939456",
    "MEAN_MOTION": 15.02535298,
    "ECCENTRICITY": 9.84e-05,
    "INCLINATION": 43.0057,
    "RA_OF_ASC_NODE": 353.2779,
    "ARG_OF_PERICENTER": 275.4553,
    "MEAN_ANOMALY": 84.6177,
    "EPHEMERIS_TYPE": 0,
    "CLASSIFICATION_TYPE": "U",
    "NORAD_CAT_ID": 56911,
    "ELEMENT_SET_NO": 999,
    "REV_AT_EPOCH": 13398,
    "BSTAR": 7.7486e-05,
    "MEAN_MOTION_DOT": 8.43e-06,
    "MEAN_MOTION_DDOT": 0.0,
    "TLE_LINE1": "1 56911U 23083AM  25315.14105254  .00000843  00000+0  77486-4 0  9996",
    "TLE_LINE2": "2 56911  43.0057 353.2779 0000984 275.4553  84.6177 15.02535298133988",
    "COMMENT": "Grouped by shell and plane from TLE"
  },
  {
    "OBJECT_NAME": "STARLINK-5805",
    "OBJECT_ID": "23083AN",
    "EPOCH": "2025-11-11T02:59:08.277504",
    "MEAN_MOTION": 15.02535746,
    "ECCENTRICITY": 0.0001141,
    "INCLINATION": 43.0045,
    "RA_OF_ASC_NODE": 353.1504,
    "ARG_OF_PERICENTER": 266.8188,
    "MEAN_ANOMALY": 93.2524,
    "EPHEMERIS_TYPE": 0,
    "CLASSIFICATION_TYPE": "U",
    "NORAD_CAT_ID": 56912,
    "ELEMENT_SET_NO": 999,
    "REV_AT_EPOCH": 13398,
    "BSTAR": 0.0,
    "MEAN_MOTION_DOT": -2.21e-06,
    "MEAN_MOTION_DDOT": 0.0,
    "TLE_LINE1": "1 56912U 23083AN  25315.12440136 -.00000221  00000+0 -12627-5 0  9995",
    "TLE_LINE2": "2 56912  43.0045 353.1504 0001141 266.8188  93.2524 15.02535746133985",
    "COMMENT": "Grouped by shell and plane from TLE"
  },
  {
    "OBJECT_NAME": "STARLINK-5950",
    "OBJECT_ID": "23083AP",
    "EPOCH": "2025-11-11T03:18:18.854208",
    "MEAN_MOTION": 15.02543301,
    "ECCENTRICITY": 0.00014,
    "INCLINATION": 43.0059,
    "RA_OF_ASC_NODE": 353.2512,
    "ARG_OF_PERICENTER": 263.2476,
    "MEAN_ANOMALY": 96.8207,
    "EPHEMERIS_TYPE": 0,
    "CLASSIFICATION_TYPE": "U",
    "NORAD_CAT_ID": 56913,
    "ELEMENT_SET_NO": 999,
    "REV_AT_EPOCH": 13398,
    "BSTAR": 7.192e-05,
    "MEAN_MOTION_DOT": 7.68e-06,
    "MEAN_MOTION_DDOT": 0.0,
    "TLE_LINE1": "1 56913U 23083AP  25315.13771822  .00000768  00000+0  71920-4 0  9990",
    "TLE_LINE2": "2 56913  43.0059 353.2512 0001400 263.2476  96.8207 15.02543301133983",
    "COMMENT": "Grouped by shell and plane from TLE"
  },
  {
    "OBJECT_NAME": "STARLINK-5961",
    "OBJECT_ID": "23083AQ",
    "EPOCH": "2025-11-11T02:49:32.966688",
    "MEAN_MOTION": 15.02540436,
    "ECCENTRICITY": 0.0001274,
    "INCLINATION": 43.006,
    "RA_OF_ASC_NODE": 353.1014,
    "ARG_OF_PERICENTER": 268.3869,
    "MEAN_ANOMALY": 91.6828,
    "EPHEMERIS_TYPE": 0,
    "CLASSIFICATION_TYPE": "U",
    "NORAD_CAT_ID": 56914,
    "ELEMENT_SET_NO": 999,
    "REV_AT_EPOCH": 13398,
    "BSTAR": 6.002e-05,
    "MEAN_MOTION_DOT": 6.07e-06,
    "MEAN_MOTION_DDOT": 0.0,
    "TLE_LINE1": "1 56914U 23083AQ  25315.11774267  .00000607  00000+0  60020-4 0  9996",
    "TLE_LINE2": "2 56914  43.0060 353.1014 0001274 268.3869  91.6828 15.02540436133981",
    "COMMENT": "Grouped by shell and plane from TLE"
  },
  {
    "OBJECT_NAME": "STARLINK-5965",
    "OBJECT_ID": "23083AR",
    "EPOCH": "2025-11-11T04:44:27.716064",
    "MEAN_MOTION": 15.02532721,
    "ECCENTRICITY": 0.0001261,
    "INCLINATION": 43.0055,
    "RA_OF_ASC_NODE": 352.8419,
    "ARG_OF_PERICENTER": 269.776,
    "MEAN_ANOMALY": 90.2938,
    "EPHEMERIS_TYPE": 0,
    "CLASSIFICATION_TYPE": "U",
    "NORAD_CAT_ID": 56915,
    "ELEMENT_SET_NO": 999,
    "REV_AT_EPOCH": 13399,
    "BSTAR": 4.7102000000000004e-05,
    "MEAN_MOTION_DOT": 4.33e-06,
    "MEAN_MOTION_DDOT": 0.0,
    "TLE_LINE1": "1 56915U 23083AR  25315.19754301  .00000433  00000+0  47102-4 0  9995",
    "TLE_LINE2": "2 56915  43.0055 352.8419 0001261 269.7760  90.2938 15.02532721133998",
    "COMMENT": "Grouped by shell and plane from TLE"
  },
  {
    "OBJECT_NAME": "STARLINK-5973",
    "OBJECT_ID": "23083AS",
    "EPOCH": "2025-11-11T04:01:18.162048",
    "MEAN_MOTION": 15.02535729,
    "ECCENTRICITY": 0.0001134,
    "INCLINATION": 43.0045,
    "RA_OF_ASC_NODE": 352.6162,
    "ARG_OF_PERICENTER": 270.9973,
    "MEAN_ANOMALY": 89.0739,
    "EPHEMERIS_TYPE": 0,
    "CLASSIFICATION_TYPE": "U",
    "NORAD_CAT_ID": 56916,
    "ELEMENT_SET_NO": 999,
    "REV_AT_EPOCH": 13396,
    "BSTAR": 3.939e-06,
    "MEAN_MOTION_DOT": -1.5e-06,
    "MEAN_MOTION_DDOT": 0.0,
    "TLE_LINE1": "1 56916U 23083AS  25315.16757132 -.00000150  00000+0  39390-5 0  9996",
    "TLE_LINE2": "2 56916  43.0045 352.6162 0001134 270.9973  89.0739 15.02535729133963",
    "COMMENT": "Grouped by shell and plane from TLE"
  },
  {
    "OBJECT_NAME": "STARLINK-5971",
    "OBJECT_ID": "23083AT",
    "EPOCH": "2025-11-11T04:30:04.378752",
    "MEAN_MOTION": 15.02542335,
    "ECCENTRICITY": 0.0001238,
    "INCLINATION": 43.0051,
    "RA_OF_ASC_NODE": 352.7609,
    "ARG_OF_PERICENTER": 261.2222,
    "MEAN_ANOMALY": 98.8481,
    "EPHEMERIS_TYPE": 0,
    "CLASSIFICATION_TYPE": "U",
    "NORAD_CAT_ID": 56917,
    "ELEMENT_SET_NO": 999,
    "REV_AT_EPOCH": 13399,
    "BSTAR": 9.623e-05,
    "MEAN_MOTION_DOT": 1.097e-05,
    "MEAN_MOTION_DDOT": 0.0,
    "TLE_LINE1": "1 56917U 23083AT  25315.18755068  .00001097  00000+0  96230-4 0  9990",
    "TLE_LINE2": "2 56917  43.0051 352.7609 0001238 261.2222  98.8481 15.02542335133999",
    "COMMENT": "Grouped by shell and plane from TLE"
  },
  {
    "OBJECT_NAME": "STARLINK-5951",
    "OBJECT_ID": "23083AU",
    "EPOCH": "2025-11-11T04:15:41.280768",
    "MEAN_MOTION": 15.02544509,
    "ECCENTRICITY": 0.0001268,
    "INCLINATION": 43.0045,
    "RA_OF_ASC_NODE": 352.6877,
    "ARG_OF_PERICENTER": 261.4641,
    "MEAN_ANOMALY": 98.6057,
    "EPHEMERIS_TYPE": 0,
    "CLASSIFICATION_TYPE": "U",
    "NORAD_CAT_ID": 56918,
    "ELEMENT_SET_NO": 999,
    "REV_AT_EPOCH": 13399,
    "BSTAR": 0.00014935000000000003,
    "MEAN_MOTION_DOT": 1.815e-05,
    "MEAN_MOTION_DDOT": 0.0,
    "TLE_LINE1": "1 56918U 23083AU  25315.17756112  .00001815  00000+0  14935-3 0  9990",
    "TLE_LINE2": "2 56918  43.0045 352.6877 0001268 261.4641  98.6057 15.02544509133991",
    "COMMENT": "Grouped by shell and plane from TLE"
  },
  {
    "OBJECT_NAME": "STARLINK-5966",
    "OBJECT_ID": "23083AV",
    "EPOCH": "2025-11-11T02:46:21.176832",
    "MEAN_MOTION": 15.02543266,
    "ECCENTRICITY": 0.0001347,
    "INCLINATION": 43.0046,
    "RA_OF_ASC_NODE": 353.0811,
    "ARG_OF_PERICENTER": 262.3799,
    "MEAN_ANOMALY": 97.689,
    "EPHEMERIS_TYPE": 0,
    "CLASSIFICATION_TYPE": "U",
    "NORAD_CAT_ID": 56919,
    "ELEMENT_SET_NO": 999,
    "REV_AT_EPOCH": 13398,
    "BSTAR": 0.00013419000000000001,
    "MEAN_MOTION_DOT": 1.61e-05,
    "MEAN_MOTION_DDOT": 0.0,
    "TLE_LINE1": "1 56919U 23083AV  25315.11552288  .00001610  00000+0  13419-3 0  9992",
    "TLE_LINE2": "2 56919  43.0046 353.0811 0001347 262.3799  97.6890 15.02543266133980",
    "COMMENT": "Grouped by shell and plane from TLE"
  },
  {
    "OBJECT_NAME": "STARLINK-5960",
    "OBJECT_ID": "23083AW",
    "EPOCH": "2025-11-11T04:06:08.827200",
    "MEAN_MOTION": 15.02504335,
    "ECCENTRICITY": 0.0001125,
    "INCLINATION": 43.0049,
    "RA_OF_ASC_NODE": 352.6379,
    "ARG_OF_PERICENTER": 266.0194,
    "MEAN_ANOMALY": 94.052,
    "EPHEMERIS_TYPE": 0,
    "CLASSIFICATION_TYPE": "U",
    "NORAD_CAT_ID": 56920,
    "ELEMENT_SET_NO": 999,
    "REV_AT_EPOCH": 13399,
    "BSTAR": 0.0,
    "MEAN_MOTION_DOT": -3.022e-05,
    "MEAN_MOTION_DDOT": 0.0,
    "TLE_LINE1": "1 56920U 23083AW  25315.17093550 -.00003022  00000+0 -20895-3 0  9999",
    "TLE_LINE2": "2 56920  43.0049 352.6379 0001125 266.0194  94.0520 15.02504335133999",
    "COMMENT": "Grouped by shell and plane from TLE"
  },
  {
    "OBJECT_NAME": "STARLINK-5958",
    "OBJECT_ID": "23083AX",
    "EPOCH": "2025-11-11T04:20:29.157792",
    "MEAN_MOTION": 15.0254791,
    "ECCENTRICITY": 0.0001238,
    "INCLINATION": 43.0049,
    "RA_OF_ASC_NODE": 352.7124,
    "ARG_OF_PERICENTER": 269.6281,
    "MEAN_ANOMALY": 90.4419,
    "EPHEMERIS_TYPE": 0,
    "CLASSIFICATION_TYPE": "U",
    "NORAD_CAT_ID": 56921,
    "ELEMENT_SET_NO": 999,
    "REV_AT_EPOCH": 13399,
    "BSTAR": 3.8618e-05,
    "MEAN_MOTION_DOT": 3.18e-06,
    "MEAN_MOTION_DDOT": 0.0,
    "TLE_LINE1": "1 56921U 23083AX  25315.18089303  .00000318  00000+0  38618-4 0  9998",
    "TLE_LINE2": "2 56921  43.0049 352.7124 0001238 269.6281  90.4419 15.02547910133993",
    "COMMENT": "Grouped by shell and plane from TLE"
  },
  {
    "OBJECT_NAME": "STARLINK-5937",
    "OBJECT_ID": "23083AY",
    "EPOCH": "2025-11-11T03:46:55.256736",
    "MEAN_MOTION": 15.02545456,
    "ECCENTRICITY": 0.0001331,
    "INCLINATION": 43.0047,
    "RA_OF_ASC_NODE": 352.5392,
    "ARG_OF_PERICENTER": 267.9533,
    "MEAN_ANOMALY": 92.1157,
    "EPHEMERIS_TYPE": 0,
    "CLASSIFICATION_TYPE": "U",
    "NORAD_CAT_ID": 56922,
    "ELEMENT_SET_NO": 999,
    "REV_AT_EPOCH": 13399,
    "BSTAR": 1.9432e-05,
    "MEAN_MOTION_DOT": 5.9e-07,
    "MEAN_MOTION_DDOT": 0.0,
    "TLE_LINE1": "1 56922U 23083AY  25315.15758399  .00000059  00000+0  19432-4 0  9999",
    "TLE_LINE2": "2 56922  43.0047 352.5392 0001331 267.9533  92.1157 15.02545456133993",
    "COMMENT": "Grouped by shell and plane from TLE"
  }
]